[{"OBJECT_NAME":"STARLINK-36854","OBJECT_ID":"2026-057U","EPOCH":"2026-04-02T06:00:02.999808","MEAN_MOTION":15.9187201,"ECCENTRICITY":0.00017142,"INCLINATION":97.2753,"RA_OF_ASC_NODE":215.7586,"ARG_OF_PERICENTER":56.7725,"MEAN_ANOMALY":40.5158,"EPHEMERIS_TYPE":0,"CLASSIFICATION_TYPE":"U","NORAD_CAT_ID":68312,"ELEMENT_SET_NO":999,"REV_AT_EPOCH":300,"BSTAR":-0.0048535408,"MEAN_MOTION_DOT":-0.01576379,"MEAN_MOTION_DDOT":0.0006984903},{"OBJECT_NAME":"STARLINK-36815","OBJECT_ID":"2026-057V","EPOCH":"2026-04-02T06:00:02.999808","MEAN_MOTION":15.91900487,"ECCENTRICITY":0.00016299,"INCLINATION":97.2753,"RA_OF_ASC_NODE":215.7605,"ARG_OF_PERICENTER":58.7846,"MEAN_ANOMALY":42.8973,"EPHEMERIS_TYPE":0,"CLASSIFICATION_TYPE":"U","NORAD_CAT_ID":68313,"ELEMENT_SET_NO":999,"REV_AT_EPOCH":300,"BSTAR":-0.0048287286,"MEAN_MOTION_DOT":-0.01570655,"MEAN_MOTION_DDOT":0.00069399321},{"OBJECT_NAME":"STARLINK-37155","OBJECT_ID":"2026-057W","EPOCH":"2026-04-02T06:00:02.999808","MEAN_MOTION":15.91976523,"ECCENTRICITY":0.00015511,"INCLINATION":97.2746,"RA_OF_ASC_NODE":215.7642,"ARG_OF_PERICENTER":60.6227,"MEAN_ANOMALY":50.1012,"EPHEMERIS_TYPE":0,"CLASSIFICATION_TYPE":"U","NORAD_CAT_ID":68314,"ELEMENT_SET_NO":999,"REV_AT_EPOCH":305,"BSTAR":-0.0048754248,"MEAN_MOTION_DOT":-0.01591779,"MEAN_MOTION_DDOT":0.00071193822},{"OBJECT_NAME":"STARLINK-37150","OBJECT_ID":"2026-057X","EPOCH":"2026-04-02T06:00:02.999808","MEAN_MOTION":15.9193212,"ECCENTRICITY":0.00016511,"INCLINATION":97.2746,"RA_OF_ASC_NODE":215.7622,"ARG_OF_PERICENTER":61.7898,"MEAN_ANOMALY":44.644,"EPHEMERIS_TYPE":0,"CLASSIFICATION_TYPE":"U","NORAD_CAT_ID":68315,"ELEMENT_SET_NO":999,"REV_AT_EPOCH":305,"BSTAR":-0.0048790993,"MEAN_MOTION_DOT":-0.01589405,"MEAN_MOTION_DDOT":0.00070965486},{"OBJECT_NAME":"STARLINK-37154","OBJECT_ID":"2026-057Y","EPOCH":"2026-04-02T06:00:02.999808","MEAN_MOTION":15.92044833,"ECCENTRICITY":0.00016966,"INCLINATION":97.2736,"RA_OF_ASC_NODE":215.7677,"ARG_OF_PERICENTER":56.5524,"MEAN_ANOMALY":63.3455,"EPHEMERIS_TYPE":0,"CLASSIFICATION_TYPE":"U","NORAD_CAT_ID":68316,"ELEMENT_SET_NO":999,"REV_AT_EPOCH":295,"BSTAR":-0.0048945439,"MEAN_MOTION_DOT":-0.01603534,"MEAN_MOTION_DDOT":0.00072221555},{"OBJECT_NAME":"STARLINK-37139","OBJECT_ID":"2026-057Z","EPOCH":"2026-04-02T06:00:02.999808","MEAN_MOTION":15.92009849,"ECCENTRICITY":0.00016769,"INCLINATION":97.274,"RA_OF_ASC_NODE":215.765,"ARG_OF_PERICENTER":59.5549,"MEAN_ANOMALY":55.7876,"EPHEMERIS_TYPE":0,"CLASSIFICATION_TYPE":"U","NORAD_CAT_ID":68317,"ELEMENT_SET_NO":999,"REV_AT_EPOCH":280,"BSTAR":-0.0048874778,"MEAN_MOTION_DOT":-0.015984,"MEAN_MOTION_DDOT":0.00071767979},{"OBJECT_NAME":"STARLINK-37113","OBJECT_ID":"2026-057AA","EPOCH":"2026-04-02T06:00:02.999808","MEAN_MOTION":15.92077843,"ECCENTRICITY":0.00017056,"INCLINATION":97.2736,"RA_OF_ASC_NODE":215.7697,"ARG_OF_PERICENTER":57.444,"MEAN_ANOMALY":67.18,"EPHEMERIS_TYPE":0,"CLASSIFICATION_TYPE":"U","NORAD_CAT_ID":68318,"ELEMENT_SET_NO":999,"REV_AT_EPOCH":305,"BSTAR":-0.0049071624,"MEAN_MOTION_DOT":-0.0161032,"MEAN_MOTION_DDOT":0.00072813652},{"OBJECT_NAME":"PROGRESS-MS 33","OBJECT_ID":"2026-058A","EPOCH":"2026-04-02T03:12:11.610144","MEAN_MOTION":15.48713693,"ECCENTRICITY":0.00062399,"INCLINATION":51.6331,"RA_OF_ASC_NODE":316.4579,"ARG_OF_PERICENTER":262.1298,"MEAN_ANOMALY":97.8982,"EPHEMERIS_TYPE":0,"CLASSIFICATION_TYPE":"U","NORAD_CAT_ID":68319,"ELEMENT_SET_NO":999,"REV_AT_EPOCH":125,"BSTAR":0.00020754706,"MEAN_MOTION_DOT":0.00010892,"MEAN_MOTION_DDOT":0},{"OBJECT_NAME":"STARLINK-36987","OBJECT_ID":"2026-059A","EPOCH":"2026-04-02T06:00:02.999808","MEAN_MOTION":15.80827488,"ECCENTRICITY":9.683e-5,"INCLINATION":53.1594,"RA_OF_ASC_NODE":244.8151,"ARG_OF_PERICENTER":82.1033,"MEAN_ANOMALY":142.8293,"EPHEMERIS_TYPE":0,"CLASSIFICATION_TYPE":"U","NORAD_CAT_ID":68321,"ELEMENT_SET_NO":999,"REV_AT_EPOCH":282,"BSTAR":0.00028388756,"MEAN_MOTION_DOT":0.00055574,"MEAN_MOTION_DDOT":0},{"OBJECT_NAME":"STARLINK-37088","OBJECT_ID":"2026-059B","EPOCH":"2026-04-02T06:00:02.999808","MEAN_MOTION":15.80822518,"ECCENTRICITY":8.486e-5,"INCLINATION":53.1595,"RA_OF_ASC_NODE":244.7974,"ARG_OF_PERICENTER":76.932,"MEAN_ANOMALY":156.5489,"EPHEMERIS_TYPE":0,"CLASSIFICATION_TYPE":"U","NORAD_CAT_ID":68322,"ELEMENT_SET_NO":999,"REV_AT_EPOCH":282,"BSTAR":0.00031232815,"MEAN_MOTION_DOT":0.00061239,"MEAN_MOTION_DDOT":0},{"OBJECT_NAME":"STARLINK-36983","OBJECT_ID":"2026-059C","EPOCH":"2026-04-02T06:00:02.999808","MEAN_MOTION":15.80844688,"ECCENTRICITY":0.0001003,"INCLINATION":53.1592,"RA_OF_ASC_NODE":244.8062,"ARG_OF_PERICENTER":91.1615,"MEAN_ANOMALY":138.0355,"EPHEMERIS_TYPE":0,"CLASSIFICATION_TYPE":"U","NORAD_CAT_ID":68323,"ELEMENT_SET_NO":999,"REV_AT_EPOCH":282,"BSTAR":0.00010878763,"MEAN_MOTION_DOT":0.00020796,"MEAN_MOTION_DDOT":0},{"OBJECT_NAME":"STARLINK-37164","OBJECT_ID":"2026-059D","EPOCH":"2026-04-02T06:00:02.999808","MEAN_MOTION":15.80832923,"ECCENTRICITY":0.00011308,"INCLINATION":53.1593,"RA_OF_ASC_NODE":244.7885,"ARG_OF_PERICENTER":47.9258,"MEAN_ANOMALY":189.831,"EPHEMERIS_TYPE":0,"CLASSIFICATION_TYPE":"U","NORAD_CAT_ID":68324,"ELEMENT_SET_NO":999,"REV_AT_EPOCH":282,"BSTAR":0.00015820284,"MEAN_MOTION_DOT":0.00030578,"MEAN_MOTION_DDOT":0},{"OBJECT_NAME":"STARLINK-36309","OBJECT_ID":"2026-059E","EPOCH":"2026-04-02T06:00:02.999808","MEAN_MOTION":15.80848124,"ECCENTRICITY":7.341e-5,"INCLINATION":53.1599,"RA_OF_ASC_NODE":244.7799,"ARG_OF_PERICENTER":33.4692,"MEAN_ANOMALY":208.5496,"EPHEMERIS_TYPE":0,"CLASSIFICATION_TYPE":"U","NORAD_CAT_ID":68325,"ELEMENT_SET_NO":999,"REV_AT_EPOCH":282,"BSTAR":0.00010348409,"MEAN_MOTION_DOT":0.00019749,"MEAN_MOTION_DDOT":0},{"OBJECT_NAME":"STARLINK-37206","OBJECT_ID":"2026-059F","EPOCH":"2026-04-02T06:00:02.999808","MEAN_MOTION":15.80844219,"ECCENTRICITY":7.969e-5,"INCLINATION":53.1595,"RA_OF_ASC_NODE":244.7708,"ARG_OF_PERICENTER":77.3123,"MEAN_ANOMALY":168.9799,"EPHEMERIS_TYPE":0,"CLASSIFICATION_TYPE":"U","NORAD_CAT_ID":68326,"ELEMENT_SET_NO":999,"REV_AT_EPOCH":282,"BSTAR":0.00015279829,"MEAN_MOTION_DOT":0.00029522,"MEAN_MOTION_DDOT":0},{"OBJECT_NAME":"STARLINK-37199","OBJECT_ID":"2026-059G","EPOCH":"2026-04-02T06:00:02.999808","MEAN_MOTION":15.80860047,"ECCENTRICITY":9.775e-5,"INCLINATION":53.1597,"RA_OF_ASC_NODE":244.7624,"ARG_OF_PERICENTER":115.3527,"MEAN_ANOMALY":135.0887,"EPHEMERIS_TYPE":0,"CLASSIFICATION_TYPE":"U","NORAD_CAT_ID":68327,"ELEMENT_SET_NO":999,"REV_AT_EPOCH":282,"BSTAR":0.0008210662,"MEAN_MOTION_DOT":0.00164374,"MEAN_MOTION_DDOT":0},{"OBJECT_NAME":"STARLINK-36245","OBJECT_ID":"2026-059H","EPOCH":"2026-04-02T06:00:02.999808","MEAN_MOTION":15.80840016,"ECCENTRICITY":0.00010851,"INCLINATION":53.1596,"RA_OF_ASC_NODE":244.7445,"ARG_OF_PERICENTER":97.1167,"MEAN_ANOMALY":161.9874,"EPHEMERIS_TYPE":0,"CLASSIFICATION_TYPE":"U","NORAD_CAT_ID":68328,"ELEMENT_SET_NO":999,"REV_AT_EPOCH":282,"BSTAR":0.00014388403,"MEAN_MOTION_DOT":0.00027747,"MEAN_MOTION_DDOT":0}]
