STARLINK-36854          
1 68312U 26057U   26092.25003472 -.01576379  69849-3 -48535-2 0  9998
2 68312  97.2753 215.7586 0001714  56.7725  40.5158 15.91872010  3004
STARLINK-36815          
1 68313U 26057V   26092.25003472 -.01570655  69399-3 -48287-2 0  9994
2 68313  97.2753 215.7605 0001629  58.7846  42.8973 15.91900487  3008
STARLINK-37155          
1 68314U 26057W   26092.25003472 -.01591779  71194-3 -48754-2 0  9990
2 68314  97.2746 215.7642 0001551  60.6227  50.1012 15.91976523  3056
STARLINK-37150          
1 68315U 26057X   26092.25003472 -.01589405  70965-3 -48791-2 0  9990
2 68315  97.2746 215.7622 0001651  61.7898  44.6440 15.91932120  3050
STARLINK-37154          
1 68316U 26057Y   26092.25003472 -.01603534  72222-3 -48945-2 0  9990
2 68316  97.2736 215.7677 0001696  56.5524  63.3455 15.92044833  2955
STARLINK-37139          
1 68317U 26057Z   26092.25003472 -.01598400  71768-3 -48875-2 0  9992
2 68317  97.2740 215.7650 0001676  59.5549  55.7876 15.92009849  2804
STARLINK-37113          
1 68318U 26057AA  26092.25003472 -.01610320  72814-3 -49072-2 0  9992
2 68318  97.2736 215.7697 0001705  57.4440  67.1800 15.92077843  3052
PROGRESS-MS 33          
1 68319U 26058A   26092.13346771  .00010892  00000+0  20755-3 0  9990
2 68319  51.6331 316.4579 0006239 262.1298  97.8982 15.48713693  1251
STARLINK-36987          
1 68321U 26059A   26092.25003472  .00055574  00000+0  28389-3 0  9992
2 68321  53.1594 244.8151 0000968  82.1033 142.8293 15.80827488  2826
STARLINK-37088          
1 68322U 26059B   26092.25003472  .00061239  00000+0  31233-3 0  9990
2 68322  53.1595 244.7974 0000848  76.9320 156.5489 15.80822518  2825
STARLINK-36983          
1 68323U 26059C   26092.25003472  .00020796  00000+0  10879-3 0  9997
2 68323  53.1592 244.8062 0001003  91.1615 138.0355 15.80844688  2821
STARLINK-37164          
1 68324U 26059D   26092.25003472  .00030578  00000+0  15820-3 0  9998
2 68324  53.1593 244.7885 0001130  47.9258 189.8310 15.80832923  2822
STARLINK-36309          
1 68325U 26059E   26092.25003472  .00019749  00000+0  10348-3 0  9996
2 68325  53.1599 244.7799 0000734  33.4692 208.5496 15.80848124  2828
STARLINK-37206          
1 68326U 26059F   26092.25003472  .00029522  00000+0  15280-3 0  9997
2 68326  53.1595 244.7708 0000796  77.3123 168.9799 15.80844219  2825
STARLINK-37199          
1 68327U 26059G   26092.25003472  .00164374  00000+0  82107-3 0  9995
2 68327  53.1597 244.7624 0000977 115.3527 135.0887 15.80860047  2827
STARLINK-36245          
1 68328U 26059H   26092.25003472  .00027747  00000+0  14388-3 0  9994
2 68328  53.1596 244.7445 0001085  97.1167 161.9874 15.80840016  2824
